[
    {
        "Altitude(m)": 604969.089235499,
        "Argument of Periapsis(deg)": 0.0,
        "Eccentricity": 0.0,
        "Inclination(deg)": 60.0,
        "Latitude(deg)": -0.09274345701274438,
        "Longitude(deg)": -95.02247241139767,
        "Mean Anomaly(deg)": 0.0,
        "RAAN(deg)": 5.0,
        "Satellite Name": "Test1 22",
        "Satellite Number": 22,
        "Semi-Major Axis(m)": 6980739.136638005,
        "Time(s)": 0
    },
    {
        "Altitude(m)": 604900.0281536072,
        "Argument of Periapsis(deg)": 0.00010418945913296404,
        "Eccentricity": 0.0,
        "Inclination(deg)": 60.0,
        "Latitude(deg)": 0.4476823914041368,
        "Longitude(deg)": -94.754349289973,
        "Mean Anomaly(deg)": 0.6201061454618307,
        "RAAN(deg)": 4.999579950860257,
        "Satellite Name": "Test1 22",
        "Satellite Number": 22,
        "Semi-Major Axis(m)": 6980739.136638005,
        "Time(s)": 10
    }
]